IRIDIUM 39              
1 25042U 97069D   25240.28125449  .00000817  00000+0  20834-3 0  9997
2 25042  86.3977 180.2450 0020051  68.4755 291.8584 14.49294140459405
IRIDIUM 38              
1 25043U 97069E   25240.39122279  .00000572  00000+0  18227-3 0  9999
2 25043  86.3990 202.7870 0001685 143.2864 216.8450 14.38168107456331
IRIDIUM 42              
1 25077U 97077A   25240.41649707  .00000515  00000+0  16937-3 0  9991
2 25077  86.3981 209.0300 0001606 100.4639 259.6739 14.36399435451567
IRIDIUM 44              
1 25078U 97077B   25240.38443638  .00000603  00000+0  18417-3 0  9996
2 25078  86.4012 190.7955 0003527 115.3637 244.7927 14.40292571454096
IRIDIUM 45              
1 25104U 97082A   25240.31022970  .00025082  00000+0  83718-3 0  9991
2 25104  86.3611  12.8016 0112717  61.6396 299.6160 15.24899562463026
IRIDIUM 24              
1 25105U 97082B   25240.54197552  .00000626  00000+0  18428-3 0  9999
2 25105  86.3877  49.5855 0010887 188.4548 171.6471 14.42156184453647
IRIDIUM 51              
1 25262U 98018A   25240.39443286  .00044413  00000+0  85565-3 0  9992
2 25262  86.3839  19.9433 0077008 332.2350  27.4803 15.44412701458151
IRIDIUM 57              
1 25273U 98019B   25240.57594748  .00000369  00000+0  12053-3 0  9999
2 25273  86.3947 114.9387 0002068  89.0178 271.1256 14.35933873435170
